[{"OBJECT_NAME":"SITRO-AIS 15","OBJECT_ID":"2024-199D","EPOCH":"2026-03-09T21:41:54.706560","MEAN_MOTION":14.9706426,"ECCENTRICITY":0.00074523,"INCLINATION":97.3312,"RA_OF_ASC_NODE":274.4424,"ARG_OF_PERICENTER":51.6231,"MEAN_ANOMALY":308.566,"EPHEMERIS_TYPE":0,"CLASSIFICATION_TYPE":"U","NORAD_CAT_ID":61738,"ELEMENT_SET_NO":999,"REV_AT_EPOCH":11696,"BSTAR":0.0003624053,"MEAN_MOTION_DOT":4.126e-5,"MEAN_MOTION_DDOT":0},{"OBJECT_NAME":"STARLINK-36265","OBJECT_ID":"2025-304S","EPOCH":"2026-03-09T16:54:06.355008","MEAN_MOTION":14.98297439,"ECCENTRICITY":0.00044471,"INCLINATION":70.002,"RA_OF_ASC_NODE":174.5517,"ARG_OF_PERICENTER":251.031,"MEAN_ANOMALY":109.0367,"EPHEMERIS_TYPE":0,"CLASSIFICATION_TYPE":"U","NORAD_CAT_ID":67208,"ELEMENT_SET_NO":999,"REV_AT_EPOCH":1388,"BSTAR":-0.0010792203,"MEAN_MOTION_DOT":-0.00012937,"MEAN_MOTION_DDOT":0}]
